{
  "links" : {
    "next" : "https://api.nasa.gov/neo/rest/v1/feed?start_date=1997-04-09&end_date=1997-04-09&detailed=true&api_key=t0TVs3DtDT2H8Oy2Zy8m2eVrNsAVKAexjcZXUckd",
    "prev" : "https://api.nasa.gov/neo/rest/v1/feed?start_date=1997-04-07&end_date=1997-04-07&detailed=true&api_key=t0TVs3DtDT2H8Oy2Zy8m2eVrNsAVKAexjcZXUckd",
    "self" : "https://api.nasa.gov/neo/rest/v1/feed?start_date=1997-04-08&end_date=1997-04-08&detailed=true&api_key=t0TVs3DtDT2H8Oy2Zy8m2eVrNsAVKAexjcZXUckd"
  },
  "element_count" : 1,
  "near_earth_objects" : {
    "1997-04-08" : [ {
      "links" : {
        "self" : "https://api.nasa.gov/neo/rest/v1/neo/3775199?api_key=t0TVs3DtDT2H8Oy2Zy8m2eVrNsAVKAexjcZXUckd"
      },
      "neo_reference_id" : "3775199",
      "name" : "(2017 KE35)",
      "nasa_jpl_url" : "http://ssd.jpl.nasa.gov/sbdb.cgi?sstr=3775199",
      "absolute_magnitude_h" : 19.313,
      "estimated_diameter" : {
        "kilometers" : {
          "estimated_diameter_min" : 0.3647161348,
          "estimated_diameter_max" : 0.8155300698
        },
        "meters" : {
          "estimated_diameter_min" : 364.7161347731,
          "estimated_diameter_max" : 815.5300698437
        },
        "miles" : {
          "estimated_diameter_min" : 0.2266240294,
          "estimated_diameter_max" : 0.506746735
        },
        "feet" : {
          "estimated_diameter_min" : 1196.575283609,
          "estimated_diameter_max" : 2675.6236743459
        }
      },
      "is_potentially_hazardous_asteroid" : false,
      "close_approach_data" : [ {
        "close_approach_date" : "1997-04-08",
        "epoch_date_close_approach" : 860482800000,
        "relative_velocity" : {
          "kilometers_per_second" : "7.4158346271",
          "kilometers_per_hour" : "26697.0046576461",
          "miles_per_hour" : "16588.4804774135"
        },
        "miss_distance" : {
          "astronomical" : "0.45615388",
          "lunar" : "177.4438476562",
          "kilometers" : "68239648",
          "miles" : "42402152"
        },
        "orbiting_body" : "Earth"
      } ],
      "orbital_data" : {
        "orbit_id" : "3",
        "orbit_determination_date" : "2017-07-03 06:19:49",
        "orbit_uncertainty" : "5",
        "minimum_orbit_intersection" : ".377881",
        "jupiter_tisserand_invariant" : "3.897",
        "epoch_osculation" : "2458000.5",
        "eccentricity" : ".3406199428471033",
        "semi_major_axis" : "1.823646607171617",
        "inclination" : "20.29744738263527",
        "ascending_node_longitude" : "73.42763812296373",
        "orbital_period" : "899.5171571089431",
        "perihelion_distance" : "1.202476204063507",
        "perihelion_argument" : "76.86287316792576",
        "aphelion_distance" : "2.444817010279727",
        "perihelion_time" : "2457684.955424382004",
        "mean_anomaly" : "126.2855814641462",
        "mean_motion" : ".4002147120317788",
        "equinox" : "J2000"
      }
    } ]
  }
}